{"type": "FeatureCollection", "features": [ {"type": "Feature", "properties": {"norad_id": 30597, "name": "FENGYUN 1C DEB", "group": "fengyun-1c-debris", "lat": 80.9637539746044, "lon": -169.1771452077243, "alt_km": 563.2134275098324, "timestamp": "2025-12-17T17:50:19.528371+00:00", "meta": {"OBJECT_NAME": "FENGYUN 1C DEB", "OBJECT_ID": "1999-025AMC", "EPOCH": "2025-12-17T01:20:40.869312", "MEAN_MOTION": 14.92836497, "ECCENTRICITY": 0.00461692, "INCLINATION": 98.9425, "RA_OF_ASC_NODE": 288.1001, "ARG_OF_PERICENTER": 149.0833, "MEAN_ANOMALY": 211.3116, "EPHEMERIS_TYPE": 0, "CLASSIFICATION_TYPE": "U", "NORAD_CAT_ID": 30597, "ELEMENT_SET_NO": 999, "REV_AT_EPOCH": 98601, "BSTAR": 0.0036800038, "MEAN_MOTION_DOT": 0.00039018, "MEAN_MOTION_DDOT": 0}, "tle": {"line1": "1 30597U 99025AMC 25351.05602858  .00039018  00000+0  36800-2 0  9998", "line2": "2 30597  98.9425 288.1001 0046169 149.0833 211.3116 14.92836497986019"}}, "geometry": {"type": "Point", "coordinates": [-169.1771452077243, 80.9637539746044]}}, {"type": "Feature", "properties": {"norad_id": 30599, "name": "FENGYUN 1C DEB", "group": "fengyun-1c-debris", "lat": -56.0474210658253, "lon": 16.228756135817658, "alt_km": 638.4968281601232, "timestamp": "2025-12-17T17:50:19.528381+00:00", "meta": {"OBJECT_NAME": "FENGYUN 1C DEB", "OBJECT_ID": "1999-025AME", "EPOCH": "2025-12-16T18:24:44.104896", "MEAN_MOTION": 14.19711652, "ECCENTRICITY": 0.03020468, "INCLINATION": 98.6034, "RA_OF_ASC_NODE": 2.2845, "ARG_OF_PERICENTER": 333.1032, "MEAN_ANOMALY": 25.4754, "EPHEMERIS_TYPE": 0, "CLASSIFICATION_TYPE": "U", "NORAD_CAT_ID": 30599, "ELEMENT_SET_NO": 999, "REV_AT_EPOCH": 97224, "BSTAR": 0.0005896121, "MEAN_MOTION_DOT": 1.919e-05, "MEAN_MOTION_DDOT": 0}, "tle": {"line1": "1 30599U 99025AME 25350.76717714  .00001919  00000+0  58961-3 0  9997", "line2": "2 30599  98.6034   2.2845 0302046 333.1032  25.4754 14.19711652972247"}}, "geometry": {"type": "Point", "coordinates": [16.228756135817658, -56.0474210658253]}}, {"type": "Feature", "properties": {"norad_id": 30600, "name": "FENGYUN 1C DEB", "group": "fengyun-1c-debris", "lat": -7.108004120778254, "lon": 115.09200001880063, "alt_km": 702.8646933849395, "timestamp": "2025-12-17T17:50:19.528392+00:00", "meta": {"OBJECT_NAME": "FENGYUN 1C DEB", "OBJECT_ID": "1999-025AMF", "EPOCH": "2025-12-17T06:41:22.364448", "MEAN_MOTION": 14.07576671, "ECCENTRICITY": 0.03270128, "INCLINATION": 98.3871, "RA_OF_ASC_NODE": 295.7138, "ARG_OF_PERICENTER": 234.3764, "MEAN_ANOMALY": 122.6542, "EPHEMERIS_TYPE": 0, "CLASSIFICATION_TYPE": "U", "NORAD_CAT_ID": 30600, "ELEMENT_SET_NO": 999, "REV_AT_EPOCH": 94496, "BSTAR": 0.0023699495, "MEAN_MOTION_DOT": 6.485e-05, "MEAN_MOTION_DDOT": 0}, "tle": {"line1": "1 30600U 99025AMF 25351.27873107  .00006485  00000+0  23699-2 0  9998", "line2": "2 30600  98.3871 295.7138 0327012 234.3764 122.6542 14.07576671944964"}}, "geometry": {"type": "Point", "coordinates": [115.09200001880063, -7.108004120778254]}}, {"type": "Feature", "properties": {"norad_id": 30602, "name": "FENGYUN 1C DEB", "group": "fengyun-1c-debris", "lat": -80.14964336550428, "lon": -27.281445751056953, "alt_km": 607.3992172164317, "timestamp": "2025-12-17T17:50:19.528402+00:00", "meta": {"OBJECT_NAME": "FENGYUN 1C DEB", "OBJECT_ID": "1999-025AMH", "EPOCH": "2025-12-17T06:01:24.348864", "MEAN_MOTION": 14.91895638, "ECCENTRICITY": 0.00120544, "INCLINATION": 99.0326, "RA_OF_ASC_NODE": 265.7854, "ARG_OF_PERICENTER": 106.6511, "MEAN_ANOMALY": 44.7005, "EPHEMERIS_TYPE": 0, "CLASSIFICATION_TYPE": "U", "NORAD_CAT_ID": 30602, "ELEMENT_SET_NO": 999, "REV_AT_EPOCH": 97872, "BSTAR": 0.0060594518, "MEAN_MOTION_DOT": 0.00061803, "MEAN_MOTION_DDOT": 0}, "tle": {"line1": "1 30602U 99025AMH 25351.25097626  .00061803  00000+0  60595-2 0  9993", "line2": "2 30602  99.0326 265.7854 0012054 106.6511  44.7005 14.91895638978728"}}, "geometry": {"type": "Point", "coordinates": [-27.281445751056953, -80.14964336550428]}}, {"type": "Feature", "properties": {"norad_id": 30603, "name": "FENGYUN 1C DEB", "group": "fengyun-1c-debris", "lat": 75.54510063834717, "lon": -20.879091021843937, "alt_km": 993.5310359291589, "timestamp": "2025-12-17T17:50:19.528413+00:00", "meta": {"OBJECT_NAME": "FENGYUN 1C DEB", "OBJECT_ID": "1999-025AMJ", "EPOCH": "2025-12-17T00:14:58.082208", "MEAN_MOTION": 13.84135313, "ECCENTRICITY": 0.0183459, "INCLINATION": 98.4091, "RA_OF_ASC_NODE": 13.482, "ARG_OF_PERICENTER": 193.7055, "MEAN_ANOMALY": 196.569, "EPHEMERIS_TYPE": 0, "CLASSIFICATION_TYPE": "U", "NORAD_CAT_ID": 30603, "ELEMENT_SET_NO": 999, "REV_AT_EPOCH": 94935, "BSTAR": 0.0011559124, "MEAN_MOTION_DOT": 1.43e-05, "MEAN_MOTION_DDOT": 0}, "tle": {"line1": "1 30603U 99025AMJ 25351.01039447  .00001430  00000+0  11559-2 0  9991", "line2": "2 30603  98.4091  13.4820 0183459 193.7055 196.5690 13.84135313949351"}}, "geometry": {"type": "Point", "coordinates": [-20.879091021843937, 75.54510063834717]}}, {"type": "Feature", "properties": {"norad_id": 30604, "name": "FENGYUN 1C DEB", "group": "fengyun-1c-debris", "lat": 78.10974208322871, "lon": -109.05228696251018, "alt_km": 844.9172121603451, "timestamp": "2025-12-17T17:50:19.528423+00:00", "meta": {"OBJECT_NAME": "FENGYUN 1C DEB", "OBJECT_ID": "1999-025AMK", "EPOCH": "2025-12-16T01:02:33.485568", "MEAN_MOTION": 14.23615612, "ECCENTRICITY": 0.02094695, "INCLINATION": 98.4025, "RA_OF_ASC_NODE": 24.7363, "ARG_OF_PERICENTER": 357.1977, "MEAN_ANOMALY": 32.1756, "EPHEMERIS_TYPE": 0, "CLASSIFICATION_TYPE": "U", "NORAD_CAT_ID": 30604, "ELEMENT_SET_NO": 999, "REV_AT_EPOCH": 97886, "BSTAR": 0.00027809037, "MEAN_MOTION_DOT": 7.49e-06, "MEAN_MOTION_DDOT": 0}, "tle": {"line1": "1 30604U 99025AMK 25350.04344312  .00000749  00000+0  27809-3 0  9992", "line2": "2 30604  98.4025  24.7363 0209469 357.1977  32.1756 14.23615612978860"}}, "geometry": {"type": "Point", "coordinates": [-109.05228696251018, 78.10974208322871]}}, {"type": "Feature", "properties": {"norad_id": 30606, "name": "FENGYUN 1C DEB", "group": "fengyun-1c-debris", "lat": -22.351988139106375, "lon": 5.12404542110385, "alt_km": 827.863914770116, "timestamp": "2025-12-17T17:50:19.528433+00:00", "meta": {"OBJECT_NAME": "FENGYUN 1C DEB", "OBJECT_ID": "1999-025AMM", "EPOCH": "2025-12-17T06:42:05.154912", "MEAN_MOTION": 14.57666105, "ECCENTRICITY": 0.0214285, "INCLINATION": 98.0957, "RA_OF_ASC_NODE": 1.3169, "ARG_OF_PERICENTER": 123.0754, "MEAN_ANOMALY": 302.177, "EPHEMERIS_TYPE": 0, "CLASSIFICATION_TYPE": "U", "NORAD_CAT_ID": 30606, "ELEMENT_SET_NO": 999, "REV_AT_EPOCH": 99308, "BSTAR": 0.00046419949, "MEAN_MOTION_DOT": 2.853e-05, "MEAN_MOTION_DDOT": 0}, "tle": {"line1": "1 30606U 99025AMM 25351.27922633  .00002853  00000+0  46420-3 0  9996", "line2": "2 30606  98.0957   1.3169 0214285 123.0754 302.1770 14.57666105993089"}}, "geometry": {"type": "Point", "coordinates": [5.12404542110385, -22.351988139106375]}}, {"type": "Feature", "properties": {"norad_id": 30608, "name": "FENGYUN 1C DEB", "group": "fengyun-1c-debris", "lat": -78.3918052417536, "lon": -173.87407797464402, "alt_km": 805.5611381113322, "timestamp": "2025-12-17T17:50:19.528443+00:00", "meta": {"OBJECT_NAME": "FENGYUN 1C DEB", "OBJECT_ID": "1999-025AMP", "EPOCH": "2025-12-17T03:19:07.643424", "MEAN_MOTION": 14.28501036, "ECCENTRICITY": 0.00162128, "INCLINATION": 98.7104, "RA_OF_ASC_NODE": 53.7935, "ARG_OF_PERICENTER": 166.5149, "MEAN_ANOMALY": 226.0823, "EPHEMERIS_TYPE": 0, "CLASSIFICATION_TYPE": "U", "NORAD_CAT_ID": 30608, "ELEMENT_SET_NO": 999, "REV_AT_EPOCH": 97502, "BSTAR": 0.00090418156, "MEAN_MOTION_DOT": 2.224e-05, "MEAN_MOTION_DDOT": 0}, "tle": {"line1": "1 30608U 99025AMP 25351.13828291  .00002224  00000+0  90418-3 0  9996", "line2": "2 30608  98.7104  53.7935 0016212 166.5149 226.0823 14.28501036975020"}}, "geometry": {"type": "Point", "coordinates": [-173.87407797464402, -78.3918052417536]}}, {"type": "Feature", "properties": {"norad_id": 30609, "name": "FENGYUN 1C DEB", "group": "fengyun-1c-debris", "lat": -21.258400601701325, "lon": 84.77025282864476, "alt_km": 942.8050676047178, "timestamp": "2025-12-17T17:50:19.528453+00:00", "meta": {"OBJECT_NAME": "FENGYUN 1C DEB", "OBJECT_ID": "1999-025AMQ", "EPOCH": "2025-12-17T04:58:57.073728", "MEAN_MOTION": 14.11250168, "ECCENTRICITY": 0.01197306, "INCLINATION": 98.5686, "RA_OF_ASC_NODE": 267.6216, "ARG_OF_PERICENTER": 40.451, "MEAN_ANOMALY": 320.5488, "EPHEMERIS_TYPE": 0, "CLASSIFICATION_TYPE": "U", "NORAD_CAT_ID": 30609, "ELEMENT_SET_NO": 999, "REV_AT_EPOCH": 95791, "BSTAR": 0.0020840991, "MEAN_MOTION_DOT": 3.984e-05, "MEAN_MOTION_DDOT": 0}, "tle": {"line1": "1 30609U 99025AMQ 25351.20760502  .00003984  00000+0  20841-2 0  9991", "line2": "2 30609  98.5686 267.6216 0119730  40.4510 320.5488 14.11250168957917"}}, "geometry": {"type": "Point", "coordinates": [84.77025282864476, -21.258400601701325]}}, {"type": "Feature", "properties": {"norad_id": 30612, "name": "FENGYUN 1C DEB", "group": "fengyun-1c-debris", "lat": 76.11660811968802, "lon": -58.30886371208644, "alt_km": 471.83398177760955, "timestamp": "2025-12-17T17:50:19.528463+00:00", "meta": {"OBJECT_NAME": "FENGYUN 1C DEB", "OBJECT_ID": "1999-025AMT", "EPOCH": "2025-12-17T05:13:49.473408", "MEAN_MOTION": 15.30736572, "ECCENTRICITY": 0.00279318, "INCLINATION": 99.0814, "RA_OF_ASC_NODE": 341.376, "ARG_OF_PERICENTER": 333.6463, "MEAN_ANOMALY": 92.2096, "EPHEMERIS_TYPE": 0, "CLASSIFICATION_TYPE": "U", "NORAD_CAT_ID": 30612, "ELEMENT_SET_NO": 999, "REV_AT_EPOCH": 326, "BSTAR": 0.0031120284, "MEAN_MOTION_DOT": 0.00094531, "MEAN_MOTION_DDOT": 0}, "tle": {"line1": "1 30612U 99025AMT 25351.21793372  .00094531  00000+0  31120-2 0  9997", "line2": "2 30612  99.0814 341.3760 0027931 333.6463  92.2096 15.30736572  3267"}}, "geometry": {"type": "Point", "coordinates": [-58.30886371208644, 76.11660811968802]}}]}